CELTEE 1                
1 41850U 16067C   18095.69287662 -.00000104  00000-0 -37603-5 0  9998
2 41850  97.9240 182.9525 0009681  50.7960 309.4119 14.96771109 76256
OPTICUBE 04             
1 41851U 16067D   18096.45368120  .00000674  00000-0  64371-4 0  9994
2 41851  97.9241 183.6563 0010027  51.9185 308.2939 14.96641797 76364
AEROCUBE 8D             
1 41852U 16067E   18096.21418948 -.00000264  00000-0 -17924-4 0  9992
2 41852  97.9255 183.2663 0010757  50.1020 310.1145 14.96447678 76314
AEROCUBE 8C             
1 41853U 16067F   18096.22662468 -.00000007  00000-0  47546-5 0  9990
2 41853  97.9248 183.2465 0010928  50.9931 309.2261 14.96408528 76315
PROMETHEUS 2-1          
1 41854U 16067G   18096.17068457  .00000476  00000-0  47185-4 0  9990
2 41854  97.9253 183.1826 0011202  51.8360 308.3868 14.96486555 76302
PROMETHEUS 2-3          
1 41855U 16067H   18096.17319570  .00000536  00000-0  52483-4 0  9990
2 41855  97.9256 183.1880 0011410  52.3550 307.8704 14.96483974 76309
ITF-2                   
1 41932U 98067KU  18096.56759331  .00023755  00000-0  18267-3 0  9991
2 41932  51.6374 348.7164 0002770 269.4591  90.6090 15.71897006 69487
WASEDA-SAT3             
1 41933U 98067KV  18096.52827312  .00034294  00000-0  22059-3 0  9997
2 41933  51.6364 344.5917 0002253 257.3464 102.7284 15.75856261 69536
AOBA-VELOX 3            
1 41935U 98067KX  18096.15795014  .00035077  00000-0  24084-3 0  9991
2 41935  51.6372 348.1891 0002076 260.0408 100.0357 15.74338421 69556
INS-1B                  
1 41954U 17008G   18096.56974986  .00001173  00000-0  53230-4 0  9996
2 41954  97.4533 161.1180 0008076 238.9453 121.0991 15.22792198 63108
BGUSAT                  
1 41999U 17008BD  18096.61434151  .00001826  00000-0  77792-4 0  9990
2 41999  97.4574 162.0124 0006895 259.3210 100.7250 15.24251124 62523
DIDO-2                  
1 42000U 17008BE  18096.52145097  .00000769  00000-0  35691-4 0  9999
2 42000  97.4551 161.4617 0007079 261.7899  98.2535 15.23034109 62491
PEASSS                  
1 42015U 17008BV  18096.53731456  .00001064  00000-0  47153-4 0  9991
2 42015  97.4546 161.8508 0004922 271.0101  89.0572 15.23813008 63008
AL-FARABI 1             
1 42016U 17008BW  18096.61389131  .00001308  00000-0  56662-4 0  9996
2 42016  97.4553 162.0751 0004805 270.6089  89.4598 15.24176021 63145
NAYIF-1 (EO-88)         
1 42017U 17008BX  18096.60923371  .00001363  00000-0  58887-4 0  9998
2 42017  97.4551 162.0762 0004779 271.1369  88.9320 15.24198767 63163
HAVELSAT                
1 42700U 98067LH  18096.12687996  .00024739  00000-0  22905-3 0  9991
2 42700  51.6377   2.2704 0003031 352.0257   8.0690 15.67356493 50704
SGSAT                   
1 42703U 98067LL  18096.05433945  .00203258  00000-0  65713-3 0  9998
2 42703  51.6312 348.0773 0004699 212.6366 147.4350 15.89729311 50793
CXBN-2                  
1 42704U 98067LM  18096.12966073  .00023862  00000-0  22432-3 0  9992
2 42704  51.6382   3.0501 0001013 216.6253 143.4674 15.67004074 50618
ICECUBE                 
1 42705U 98067LN  18096.34189279  .00047533  00000-0  35706-3 0  9991
2 42705  51.6425 357.7723 0001559 243.9251 116.1587 15.72087628 50766
PHOENIX                 
1 42706U 98067LP  18096.14146339  .00021913  00000-0  21321-3 0  9992
2 42706  51.6375   3.1218 0000382 176.3746 183.7252 15.66202000 50601
X-CUBESAT               
1 42707U 98067LQ  18096.12705385  .00025437  00000-0  23237-3 0  9996
2 42707  51.6349   2.2304 0000610 176.7618 183.3382 15.67673373 50601
QBEE50-LTU-OC           
1 42708U 98067LR  18096.10415947  .00024394  00000-0  22822-3 0  9997
2 42708  51.6377   2.8565 0000515 177.2021 182.8978 15.67109548 50553
ALTAIR PATHFINDER       
1 42711U 98067LS  18095.96460370  .00012418  00000-0  14276-3 0  9992
2 42711  51.6380   8.6911 0002787 260.6933  99.3746 15.62443548 50171
SHARC                   
1 42712U 98067LT  18096.12868787  .00010167  00000-0  12342-3 0  9997
2 42712  51.6400   9.0788 0001211 266.0526  94.0329 15.61259926 50422
ZA-AEROSAT              
1 42713U 98067LU  18096.17634656  .00018302  00000-0  18719-3 0  9992
2 42713  51.6368   4.8453 0001386 225.5866 134.5016 15.65078488 50247
LINK                    
1 42714U 98067LV  18096.11064537  .00042168  00000-0  31499-3 0  9999
2 42714  51.6323 359.0766 0001961 202.7006 157.3906 15.72273285 50424
CSUNSAT 1               
1 42715U 98067LW  18096.15344494  .00019508  00000-0  19636-3 0  9998
2 42715  51.6383   4.7063 0002836 244.2142 115.8561 15.65431994 50240
SPACECUBE               
1 42717U 98067LY  18096.31961780  .00024083  00000-0  22585-3 0  9992
2 42717  51.6360   2.0414 0001792   0.6970 359.4028 15.67058361 49664
HOOPOE                  
1 42718U 98067LZ  18096.13097033  .00028796  00000-0  25178-3 0  9990
2 42718  51.6371   1.5355 0001410 359.8971   0.2026 15.68678358 49655
CHALLENGER              
1 42721U 98067MA  18096.09925733  .00046051  00000-0  30111-3 0  9993
2 42721  51.6334 356.7470 0001976 308.1872  51.8949 15.75339829 49410
NJUST-1                 
1 42722U 98067MB  18096.58077564  .00014979  00000-0  15894-3 0  9993
2 42722  51.6377   3.8077 0004450 327.7666  32.3057 15.64312826 49363
UNSW-ECO                
1 42723U 98067MC  18096.09181546  .00031572  00000-0  27181-3 0  9996
2 42723  51.6385   2.0434 0003098 323.0871  36.9913 15.69003039 49320
LILACSAT-1              
1 42725U 98067ME  18096.33561829  .00021444  00000-0  21030-3 0  9995
2 42725  51.6377   3.6686 0003225 329.7640  30.3169 15.66016622 49249
NSIGHT-1                
1 42726U 98067MF  18096.16370478  .00007463  00000-0  95299-4 0  9999
2 42726  51.6399  10.0576 0004692 330.9216  29.1515 15.60393004 49153
SNUSAT-1                
1 42727U 98067MG  18095.32159819  .00021404  00000-0  21108-3 0  9999
2 42727  51.6362   8.8585 0004842 275.4932  84.5511 15.65872251 49055
I-INSPIRE II            
1 42731U 98067ML  18096.17231580  .00032558  00000-0  27417-3 0  9995
2 42731  51.6364   1.0301 0004012 256.7571 103.2979 15.69521080 49123
POLYITAN-2-SAU          
1 42732U 98067MM  18096.31502527  .00025318  00000-0  23263-3 0  9995
2 42732  51.6368   2.0023 0004405 258.2846 101.7656 15.67526252 49127
SNUSAT-1B               
1 42733U 98067MN  18096.15140097  .00023337  00000-0  22425-3 0  9996
2 42733  51.6375   3.9190 0004488 263.0668  96.9817 15.66464029 49089
EXALTA-1                
1 42734U 98067MP  18096.17490283  .00033828  00000-0  28223-3 0  9992
2 42734  51.6347   1.0360 0004402 289.8517  70.2006 15.69724344 49078
BEEAGLESAT              
1 42736U 98067MR  18096.35229381  .00020134  00000-0  20110-3 0  9996
2 42736  51.6369   3.7587 0004502 321.2838  38.7834 15.65597778 49165
ATLANTIS                
1 42737U 98067MS  18087.11387049  .13966215  12356-4  93055-3 0  9999
2 42737  51.6095  27.8979 0006293 234.7874 125.2564 16.40626348 47903
UCLSAT                  
1 42765U 17036A   18096.20658969  .00001169  00000-0  54754-4 0  9996
2 42765  97.4088 157.1928 0011015 336.6153  23.4580 15.21649968 43763
LITUANICASAT-2          
1 42768U 17036D   18095.97526426  .00001781  00000-0  83149-4 0  9994
2 42768  97.4102 156.6097 0014653 324.1410  35.8840 15.21049705 43582
AALTO-1                 
1 42775U 17036L   18096.57211443  .00000730  00000-0  36403-4 0  9993
2 42775  97.4083 157.1620 0013106 320.5453  39.4826 15.20611294 43610
URSA MAIOR              
1 42776U 17036M   18096.23311696  .00000810  00000-0  39940-4 0  9996
2 42776  97.4089 156.8658 0012959 322.1268  37.9054 15.20680258 43567
COMPASS 2               
1 42777U 17036N   18096.39676451  .00001487  00000-0  69139-4 0  9991
2 42777  97.4107 157.3030 0011896 325.8924  34.1546 15.21470640 43598
DIAMOND RED             
1 42783U 17036U   18096.12186921  .00000923  00000-0  44315-4 0  9990
2 42783  97.4090 157.0058 0011600 336.4165  23.6538 15.21288506 43559
PEGASUS                 
1 42784U 17036V   18096.23524751  .00001063  00000-0  50330-4 0  9990
2 42784  97.4092 157.1644 0011551 336.0571  24.0126 15.21469767 43576
DIAMOND GREEN           
1 42785U 17036W   18096.58132175  .00000924  00000-0  44376-4 0  9992
2 42785  97.4090 157.4687 0011463 335.4224  24.6464 15.21294554 43699
DIAMOND BLUE            
1 42786U 17036X   18096.12003474  .00000918  00000-0  44114-4 0  9995
2 42786  97.4091 157.0151 0011369 337.5347  22.5389 15.21293494 43546
NUDTSAT                 
1 42787U 17036Y   18096.57325899  .00001545  00000-0  70714-4 0  9995
2 42787  97.4097 157.6346 0011033 334.8363  25.2334 15.21960911 43478
SUCHAI                  
1 42788U 17036Z   18096.13867631  .00001266  00000-0  58956-4 0  9997
2 42788  97.4092 157.1388 0011150 336.7125  23.3605 15.21705639 43634
SKCUBE                  
1 42789U 17036AA  18096.59697652  .00001122  00000-0  52628-4 0  9993
2 42789  97.4089 157.5903 0010945 335.0231  25.0474 15.21683862 43624
VZLUSAT-1               
1 42790U 17036AB  18096.23496191  .00001574  00000-0  71948-4 0  9998
2 42790  97.4093 157.3094 0010641 336.9064  23.1692 15.21988374 43578
ROBUSTA-1B              
1 42792U 17036AD  18096.57219548  .00001143  00000-0  53336-4 0  9999
2 42792  97.4088 157.6144 0010571 336.6206  23.4548 15.21822873 43631
CICERO 6                
1 42793U 17036AE  18096.23178450  .00000750  00000-0  36145-4 0  9991
2 42793  97.4083 157.2952 0009795 339.7685  20.3162 15.21730510 43657
D-SAT                   
1 42794U 17036AF  18096.09379223  .00000367  00000-0  37423-4 0  9991
2 42794  97.6003 153.4443 0127760 161.4980 199.0949 14.90815669 42982
TOKI                    
1 42820U 98067MU  18096.19103574  .00019537  00000-0  20237-3 0  9992
2 42820  51.6372   6.4369 0002116 223.5721 136.5107 15.64705274 42596
MAZAALAI (NUMSAT-1)     
1 42822U 98067MW  18096.59656650  .00017011  00000-0  17838-3 0  9994
2 42822  51.6371   4.6485 0001989 232.0641 128.0174 15.64504834 42633
